{
    "links": {
        "self": "http://www.neowsapp.com/rest/v1/neo/3529622?api_key=iIulBulltgU6a56xZRHN4H3l9WmuAYTsLGpBGhQ2"
    },
    "id": "3529622",
    "neo_reference_id": "3529622",
    "name": "(2010 LJ68)",
    "designation": "2010 LJ68",
    "nasa_jpl_url": "http://ssd.jpl.nasa.gov/sbdb.cgi?sstr=3529622",
    "absolute_magnitude_h": 22.7,
    "estimated_diameter": {
        "kilometers": {
            "estimated_diameter_min": 0.0766575574,
            "estimated_diameter_max": 0.1714115092
        },
        "meters": {
            "estimated_diameter_min": 76.6575573531,
            "estimated_diameter_max": 171.4115092306
        },
        "miles": {
            "estimated_diameter_min": 0.0476327831,
            "estimated_diameter_max": 0.1065101409
        },
        "feet": {
            "estimated_diameter_min": 251.5011804664,
            "estimated_diameter_max": 562.3737359442
        }
    },
    "is_potentially_hazardous_asteroid": false,
    "close_approach_data": [
        {
            "close_approach_date": "2010-05-21",
            "close_approach_date_full": "2010-May-21 12:56",
            "epoch_date_close_approach": 1274446560000,
            "relative_velocity": {
                "kilometers_per_second": "13.0768738719",
                "kilometers_per_hour": "47076.7459388098",
                "miles_per_hour": "29251.6591640343"
            },
            "miss_distance": {
                "astronomical": "0.3469090763",
                "lunar": "134.9476306807",
                "kilometers": "51896858.898147481",
                "miles": "32247212.7961819978"
            },
            "orbiting_body": "Earth"
        }
    ],
    "orbital_data": {
        "orbit_id": "8",
        "orbit_determination_date": "2018-10-03 14:47:06",
        "first_observation_date": "2010-06-11",
        "last_observation_date": "2010-06-18",
        "data_arc_in_days": 7,
        "observations_used": 23,
        "orbit_uncertainty": "9",
        "minimum_orbit_intersection": ".0322953",
        "jupiter_tisserand_invariant": "3.931",
        "epoch_osculation": "2455362.5",
        "eccentricity": ".4538371468008742",
        "semi_major_axis": "1.771456553540098",
        "inclination": "17.13177176989959",
        "ascending_node_longitude": "164.172535760793",
        "orbital_period": "861.1804950973296",
        "perihelion_distance": ".9675037655997502",
        "perihelion_argument": "36.98674617926148",
        "aphelion_distance": "2.575409341480447",
        "perihelion_time": "2455315.494416674359",
        "mean_anomaly": "19.64978316806659",
        "mean_motion": ".4180308333148131",
        "equinox": "J2000",
        "orbit_class": {
            "orbit_class_type": "APO",
            "orbit_class_description": "Near-Earth asteroid orbits which cross the Earth’s orbit similar to that of 1862 Apollo",
            "orbit_class_range": "a (semi-major axis) > 1.0 AU; q (perihelion) < 1.017 AU"
        }
    },
    "is_sentry_object": false
}